GLOBALSTAR M035 [-]     
1 25851U 99037A   23299.40353944 -.00000039  00000+0  92603-3 0  9991
2 25851  51.9963 312.5213 0013776  89.3243  49.4414 11.04526534 29981
GLOBALSTAR M032 [-]     
1 25852U 99037B   23299.87845789 -.00000058  00000+0  29046-3 0  9998
2 25852  51.9929 178.0114 0007160 236.2107 123.8011 11.19045150 67697
GLOBALSTAR M051 [-]     
1 25853U 99037C   23299.58997560 -.00000083  00000+0 -28345-3 0  9992
2 25853  51.9820  47.3255 0001527 198.8698 161.2057 11.42192893 63898
GLOBALSTAR M030 [-]     
1 25854U 99037D   23299.22081703 -.00000125  00000+0 -10573-2 0  9997
2 25854  51.9871 252.4683 0004902  47.6587 312.4645 11.55090145 80711
GLOBALSTAR M048 [-]     
1 25872U 99041A   23299.84666672 -.00000049  00000+0  56121-3 0  9998
2 25872  51.9381 318.5663 0013128 227.0884 305.2926 11.33840511 56994
GLOBALSTAR M026 [-]     
1 25873U 99041B   23299.67363544 -.00000013  00000+0  18661-2 0  9999
2 25873  52.0008  76.1944 0001284  22.2776  74.8394 11.06829244 82107
GLOBALSTAR M043 [-]     
1 25874U 99041C   23299.62755064 -.00000073  00000+0 -15415-3 0  9999
2 25874  51.9427  42.8315 0013137  11.9792  93.6997 11.25675353 55352
GLOBALSTAR M028 [-]     
1 25875U 99041D   23299.87203189 -.00000052  00000+0  30805-3 0  9999
2 25875  51.9611 180.0535 0062826 209.4699 150.2614 12.50543006115199
